[
    {
        "Altitude(m)": 568384.9802301171,
        "Argument of Periapsis(deg)": 0.006622991110713501,
        "Eccentricity": 0.0,
        "Inclination(deg)": 53.0,
        "Latitude(deg)": -44.501347790516085,
        "Longitude(deg)": -158.33867720530517,
        "Mean Anomaly(deg)": 241.0006928675776,
        "RAAN(deg)": 74.99014336852802,
        "Satellite Name": "Starlink Shell 1 344",
        "Satellite Number": 344,
        "Semi-Major Axis(m)": 6931778.249405717,
        "Time(s)": 190
    },
    {
        "Altitude(m)": 568522.9342152472,
        "Argument of Periapsis(deg)": 0.0069715695902247375,
        "Eccentricity": 0.0,
        "Inclination(deg)": 53.0,
        "Latitude(deg)": -44.83718493215916,
        "Longitude(deg)": -157.6400588758479,
        "Mean Anomaly(deg)": 241.6275240711343,
        "RAAN(deg)": 74.98962459845055,
        "Satellite Name": "Starlink Shell 1 344",
        "Satellite Number": 344,
        "Semi-Major Axis(m)": 6931778.249405717,
        "Time(s)": 200
    },
    {
        "Altitude(m)": 568658.7259972105,
        "Argument of Periapsis(deg)": 0.007320148069735974,
        "Eccentricity": 0.0,
        "Inclination(deg)": 53.0,
        "Latitude(deg)": -45.16814834697628,
        "Longitude(deg)": -156.932879189617,
        "Mean Anomaly(deg)": 242.25435527469108,
        "RAAN(deg)": 74.98910582837307,
        "Satellite Name": "Starlink Shell 1 344",
        "Satellite Number": 344,
        "Semi-Major Axis(m)": 6931778.249405717,
        "Time(s)": 210
    },
    {
        "Altitude(m)": 568792.3020483445,
        "Argument of Periapsis(deg)": 0.007668726549247212,
        "Eccentricity": 0.0,
        "Inclination(deg)": 53.0,
        "Latitude(deg)": -45.49412641651976,
        "Longitude(deg)": -156.21706771245042,
        "Mean Anomaly(deg)": 242.88118647824777,
        "RAAN(deg)": 74.98858705829561,
        "Satellite Name": "Starlink Shell 1 344",
        "Satellite Number": 344,
        "Semi-Major Axis(m)": 6931778.249405717,
        "Time(s)": 220
    },
    {
        "Altitude(m)": 568923.6096790248,
        "Argument of Periapsis(deg)": 0.00801730502875845,
        "Eccentricity": 0.0,
        "Inclination(deg)": 53.0,
        "Latitude(deg)": -45.81500600417961,
        "Longitude(deg)": -155.49256029190826,
        "Mean Anomaly(deg)": 243.50801768180446,
        "RAAN(deg)": 74.98806828821813,
        "Satellite Name": "Starlink Shell 1 344",
        "Satellite Number": 344,
        "Semi-Major Axis(m)": 6931778.249405717,
        "Time(s)": 230
    },
    {
        "Altitude(m)": 569052.5970608374,
        "Argument of Periapsis(deg)": 0.008365883508269684,
        "Eccentricity": 0.0,
        "Inclination(deg)": 53.0,
        "Latitude(deg)": -46.130672525563554,
        "Longitude(deg)": -154.7592990445998,
        "Mean Anomaly(deg)": 244.1348488853612,
        "RAAN(deg)": 74.98754951814065,
        "Satellite Name": "Starlink Shell 1 344",
        "Satellite Number": 344,
        "Semi-Major Axis(m)": 6931778.249405717,
        "Time(s)": 240
    },
    {
        "Altitude(m)": 569179.213249302,
        "Argument of Periapsis(deg)": 0.008714461987780921,
        "Eccentricity": 0.0,
        "Inclination(deg)": 53.0,
        "Latitude(deg)": -46.44101002759937,
        "Longitude(deg)": -154.01723387018257,
        "Mean Anomaly(deg)": 244.7616800889179,
        "RAAN(deg)": 74.98703074806318,
        "Satellite Name": "Starlink Shell 1 344",
        "Satellite Number": 344,
        "Semi-Major Axis(m)": 6931778.249405717,
        "Time(s)": 250
    },
    {
        "Altitude(m)": 569303.4082062298,
        "Argument of Periapsis(deg)": 0.009063040467292158,
        "Eccentricity": 0.0,
        "Inclination(deg)": 53.0,
        "Latitude(deg)": -46.74590127675162,
        "Longitude(deg)": -153.26632246483643,
        "Mean Anomaly(deg)": 245.3885112924746,
        "RAAN(deg)": 74.98651197798571,
        "Satellite Name": "Starlink Shell 1 344",
        "Satellite Number": 344,
        "Semi-Major Axis(m)": 6931778.249405717,
        "Time(s)": 260
    },
    {
        "Altitude(m)": 569425.1328216722,
        "Argument of Periapsis(deg)": 0.009411618946803396,
        "Eccentricity": 0.0,
        "Inclination(deg)": 53.0,
        "Latitude(deg)": -47.0452278567154,
        "Longitude(deg)": -152.50653034539778,
        "Mean Anomaly(deg)": 246.0153424960313,
        "RAAN(deg)": 74.98599320790824,
        "Satellite Name": "Starlink Shell 1 344",
        "Satellite Number": 344,
        "Semi-Major Axis(m)": 6931778.249405717,
        "Time(s)": 270
    },
    {
        "Altitude(m)": 569544.3389354193,
        "Argument of Periapsis(deg)": 0.009760197426314633,
        "Eccentricity": 0.0,
        "Inclination(deg)": 53.0,
        "Latitude(deg)": -47.338870275925295,
        "Longitude(deg)": -151.73783239507912,
        "Mean Anomaly(deg)": 246.64217369958806,
        "RAAN(deg)": 74.98547443783076,
        "Satellite Name": "Starlink Shell 1 344",
        "Satellite Number": 344,
        "Semi-Major Axis(m)": 6931778.249405717,
        "Time(s)": 280
    },
    {
        "Altitude(m)": 569660.979358095,
        "Argument of Periapsis(deg)": 0.01010877590582587,
        "Eccentricity": 0.0,
        "Inclination(deg)": 53.0,
        "Latitude(deg)": -47.62670808519834,
        "Longitude(deg)": -150.96021290280046,
        "Mean Anomaly(deg)": 247.26900490314478,
        "RAAN(deg)": 74.9849556677533,
        "Satellite Name": "Starlink Shell 1 344",
        "Satellite Number": 344,
        "Semi-Major Axis(m)": 6931778.249405717,
        "Time(s)": 290
    },
    {
        "Altitude(m)": 569775.0078918065,
        "Argument of Periapsis(deg)": 0.010457354385337106,
        "Eccentricity": 0.0,
        "Inclination(deg)": 53.0,
        "Latitude(deg)": -47.908620005780364,
        "Longitude(deg)": -150.17366560651206,
        "Mean Anomaly(deg)": 247.89583610670147,
        "RAAN(deg)": 74.98443689767582,
        "Satellite Name": "Starlink Shell 1 344",
        "Satellite Number": 344,
        "Semi-Major Axis(m)": 6931778.249405717,
        "Time(s)": 300
    },
    {
        "Altitude(m)": 569886.3793503586,
        "Argument of Periapsis(deg)": 0.010805932864848343,
        "Eccentricity": 0.0,
        "Inclination(deg)": 53.0,
        "Latitude(deg)": -48.184484068026705,
        "Longitude(deg)": -149.3781952505952,
        "Mean Anomaly(deg)": 248.52266731025816,
        "RAAN(deg)": 74.98391812759834,
        "Satellite Name": "Starlink Shell 1 344",
        "Satellite Number": 344,
        "Semi-Major Axis(m)": 6931778.249405717,
        "Time(s)": 310
    },
    {
        "Altitude(m)": 569995.049578997,
        "Argument of Periapsis(deg)": 0.01115451134435958,
        "Eccentricity": 0.0,
        "Inclination(deg)": 53.0,
        "Latitude(deg)": -48.454177760903995,
        "Longitude(deg)": -148.5738176285184,
        "Mean Anomaly(deg)": 249.14949851381493,
        "RAAN(deg)": 74.98339935752088,
        "Satellite Name": "Starlink Shell 1 344",
        "Satellite Number": 344,
        "Semi-Major Axis(m)": 6931778.249405717,
        "Time(s)": 320
    },
    {
        "Altitude(m)": 570100.9754736958,
        "Argument of Periapsis(deg)": 0.011503089823870818,
        "Eccentricity": 0.0,
        "Inclination(deg)": 53.0,
        "Latitude(deg)": -48.71757819243469,
        "Longitude(deg)": -147.76055962026481,
        "Mean Anomaly(deg)": 249.7763297173716,
        "RAAN(deg)": 74.9828805874434,
        "Satellite Name": "Starlink Shell 1 344",
        "Satellite Number": 344,
        "Semi-Major Axis(m)": 6931778.249405717,
        "Time(s)": 330
    },
    {
        "Altitude(m)": 570204.1149999808,
        "Argument of Periapsis(deg)": 0.011851668303382053,
        "Eccentricity": 0.0,
        "Inclination(deg)": 53.0,
        "Latitude(deg)": -48.97456226114472,
        "Longitude(deg)": -146.93846073375636,
        "Mean Anomaly(deg)": 250.40316092092837,
        "RAAN(deg)": 74.98236181736593,
        "Satellite Name": "Starlink Shell 1 344",
        "Satellite Number": 344,
        "Semi-Major Axis(m)": 6931778.249405717,
        "Time(s)": 340
    },
    {
        "Altitude(m)": 570304.4272112843,
        "Argument of Periapsis(deg)": 0.012200246782893292,
        "Eccentricity": 0.0,
        "Inclination(deg)": 53.0,
        "Latitude(deg)": -49.22500683850733,
        "Longitude(deg)": -146.1075731206113,
        "Mean Anomaly(deg)": 251.02999212448506,
        "RAAN(deg)": 74.98184304728845,
        "Satellite Name": "Starlink Shell 1 344",
        "Satellite Number": 344,
        "Semi-Major Axis(m)": 6931778.249405717,
        "Time(s)": 350
    },
    {
        "Altitude(m)": 570401.8722667833,
        "Argument of Periapsis(deg)": 0.012548825262404526,
        "Eccentricity": 0.0,
        "Inclination(deg)": 53.0,
        "Latitude(deg)": -49.468788962293985,
        "Longitude(deg)": -145.2679615749278,
        "Mean Anomaly(deg)": 251.65682332804175,
        "RAAN(deg)": 74.98132427721099,
        "Satellite Name": "Starlink Shell 1 344",
        "Satellite Number": 344,
        "Semi-Major Axis(m)": 6931778.249405717,
        "Time(s)": 360
    },
    {
        "Altitude(m)": 570496.411448794,
        "Argument of Periapsis(deg)": 0.012897403741915765,
        "Eccentricity": 0.0,
        "Inclination(deg)": 53.0,
        "Latitude(deg)": -49.70578604065498,
        "Longitude(deg)": -144.41970502355244,
        "Mean Anomaly(deg)": 252.28365453159847,
        "RAAN(deg)": 74.98080550713351,
        "Satellite Name": "Starlink Shell 1 344",
        "Satellite Number": 344,
        "Semi-Major Axis(m)": 6931778.249405717,
        "Time(s)": 370
    }
]